     2.100          NAVIGATION                              RINEX VERSION / TYPE
fic2rin                                 01/02/2014 00:15:55 PGM / RUN BY / DATE
                                                            END OF HEADER
24 14  1  1 16  0  0.0 -.208150595427D-04 -.682121026330D-12  .000000000000D+00
     .200000000000D+01  .165187500000D+03  .443911347832D-08 -.162035125916D+01
     .858306884766D-05  .163388834335D-02  .569224357605D-05  .515363956070D+04
     .316800000000D+06 -.745058059692D-07 -.222042387498D+01 -.651925802231D-07
     .957880739989D+00  .269156250000D+03  .112210860821D+00 -.824962934446D-08
     .392873507616D-09  .100000000000D+01  .177300000000D+04  .000000000000D+00
     .240000000000D+01  .000000000000D+00  .279396772385D-08  .200000000000D+01
     .309606000000D+06  .400000000000D+01
25 14  1  1 16  0  0.0  .635348260403D-05  .250111042988D-11  .000000000000D+00
     .690000000000D+02 -.680625000000D+02  .445625704956D-08  .241579625239D+01
    -.348128378391D-05  .292156124488D-02 -.230967998505D-06  .515367354012D+04
     .316800000000D+06  .000000000000D+00 -.116727848314D+01  .353902578354D-07
     .974848462626D+00  .391187500000D+03  .631274423114D+00 -.847321008607D-08
    -.139291516336D-09  .100000000000D+01  .177300000000D+04  .000000000000D+00
     .240000000000D+01  .000000000000D+00  .558793544769D-08  .690000000000D+02
     .309606000000D+06  .400000000000D+01
26 14  1  1 16  0  0.0  .205995049328D-03 -.104591890704D-10  .000000000000D+00
     .103000000000D+03  .830937500000D+02  .381694470535D-08 -.109986308384D+01
     .443309545517D-05  .212626530556D-01  .132378190756D-04  .515369057274D+04
     .316800000000D+06 -.465661287308D-07  .312164729725D+01  .476837158203D-06
     .976971433250D+00  .135031250000D+03  .125682951826D+01 -.775282293619D-08
    -.567880797372D-09  .100000000000D+01  .177300000000D+04  .000000000000D+00
     .240000000000D+01  .000000000000D+00 -.605359673500D-08  .103000000000D+03
     .309606000000D+06  .400000000000D+01
28 14  1  1 16  0  0.0  .321226660162D-03  .306954461848D-11  .000000000000D+00
     .830000000000D+02 -.933125000000D+02  .436661045828D-08  .952629030857D+00
    -.505708158016D-05  .192620034795D-01  .166893005371D-05  .515365711212D+04
     .316800000000D+06 -.353902578354D-06 -.110203921105D+01 -.670552253723D-07
     .985242102054D+00  .364250000000D+03 -.174084580730D+01 -.865393189957D-08
    -.328942273195D-09  .100000000000D+01  .177300000000D+04  .000000000000D+00
     .340000000000D+01  .000000000000D+00 -.107102096081D-07  .830000000000D+02
     .309606000000D+06  .400000000000D+01
29 14  1  1 16  0  0.0  .499932095408D-03  .295585778076D-11  .000000000000D+00
     .390000000000D+02 -.135781250000D+03  .396016495677D-08  .305901671239D+01
    -.714324414730D-05  .154423119966D-02  .119060277939D-04  .515378679657D+04
     .316800000000D+06  .260770320892D-07 -.652116448753D-01  .316649675369D-07
     .968489927230D+00  .151156250000D+03 -.101964033122D+01 -.768174854709D-08
     .135005623526D-09  .100000000000D+01  .177300000000D+04  .000000000000D+00
     .240000000000D+01  .000000000000D+00 -.931322574615D-08  .390000000000D+02
     .309606000000D+06  .400000000000D+01
31 14  1  1 16  0  0.0  .331859569997D-03  .454747350886D-12  .000000000000D+00
     .300000000000D+01  .156250000000D+03  .401695303650D-08 -.267952992998D+01
     .819563865662D-05  .823213031981D-02  .496767461300D-05  .515375009155D+04
     .316800000000D+06 -.279396772385D-07 -.218272593607D+01  .111758708954D-06
     .979382095493D+00  .295406250000D+03 -.691971551073D+00 -.794961684774D-08
     .354300472323D-09  .100000000000D+01  .177300000000D+04  .000000000000D+00
     .240000000000D+01  .000000000000D+00 -.130385160446D-07  .300000000000D+01
     .309606000000D+06  .400000000000D+01
32 14  1  1 16  0  0.0 -.508128199726D-03  .545696821064D-11  .000000000000D+00
     .590000000000D+02 -.316250000000D+02  .530200656414D-08 -.214276847338D+01
    -.170804560184D-05  .115496738581D-01  .596605241299D-05  .515352043152D+04
     .316800000000D+06 -.303611159325D-06  .206413732443D+01 -.260770320892D-06
     .947850231938D+00  .256093750000D+03 -.205825529802D+00 -.842070789914D-08
    -.523950396066D-09  .100000000000D+01  .177300000000D+04  .000000000000D+00
     .240000000000D+01  .000000000000D+00 -.325962901115D-08  .590000000000D+02
     .309606000000D+06  .400000000000D+01
 8 14  1  1 15 59 44.0  .109928660095D-04  .341060513165D-12  .000000000000D+00
     .180000000000D+02  .153125000000D+03  .367943897769D-08  .300522693794D+01
     .775791704655D-05  .134282426443D-01  .337325036526D-05  .515365808678D+04
     .316784000000D+06 -.521540641785D-07 -.209205726373D+01 -.141561031342D-06
     .997403859383D+00  .335656250000D+03 -.279689171804D+01 -.780639659632D-08
     .431803700643D-09  .100000000000D+01  .177300000000D+04  .000000000000D+00
     .240000000000D+01  .000000000000D+00 -.465661287308D-08  .180000000000D+02
     .312156000000D+06  .400000000000D+01
 6 14  1  1 15 59 44.0  .217892229557D-03  .158024704433D-10  .000000000000D+00
     .000000000000D+00 -.129500000000D+03  .459340561950D-08  .669555927360D+00
    -.684335827827D-05  .837031006813D-02  .102110207081D-04  .515369500923D+04
     .316784000000D+06  .176951289177D-06 -.182970444036D+00  .167638063431D-07
     .943725257922D+00  .175687500000D+03 -.191416860503D+00 -.813283876538D-08
    -.214294640518D-11  .100000000000D+01  .177300000000D+04  .000000000000D+00
     .240000000000D+01  .000000000000D+00 -.512227416039D-08  .000000000000D+00
     .313236000000D+06  .400000000000D+01
28 14  1  1 15 59 44.0  .321221537888D-03  .295585778076D-11  .000000000000D+00
     .260000000000D+02 -.933125000000D+02  .436696761602D-08  .950295563876D+00
    -.505708158016D-05  .192620024318D-01  .166893005371D-05  .515365711021D+04
     .316784000000D+06 -.353902578354D-06 -.110203906476D+01 -.670552253723D-07
     .985242110831D+00  .364250000000D+03 -.174084606477D+01 -.865393189957D-08
    -.329299430929D-09  .100000000000D+01  .177300000000D+04  .000000000000D+00
     .240000000000D+01  .000000000000D+00 -.107102096081D-07  .260000000000D+02
     .315156000000D+06  .400000000000D+01
 6 14  1  1 17 59 44.0  .218006316572D-03  .158024704433D-10  .000000000000D+00
     .800000000000D+01 -.146000000000D+03  .461340645261D-08  .171997429947D+01
    -.760331749916D-05  .836926908232D-02  .994466245174D-05  .515369064331D+04
     .323984000000D+06  .335276126862D-07 -.183027802128D+00  .782310962677D-07
     .943725124797D+00  .180093750000D+03 -.191665550725D+00 -.802962018020D-08
    -.116790579082D-09  .100000000000D+01  .177300000000D+04  .000000000000D+00
     .240000000000D+01  .000000000000D+00 -.512227416039D-08  .800000000000D+01
     .316806000000D+06  .400000000000D+01
 8 14  1  1 17 59 44.0  .109951943159D-04  .341060513165D-12  .000000000000D+00
     .190000000000D+02  .139625000000D+03  .374622747398D-08 -.222782591570D+01
     .712461769581D-05  .134299348574D-01  .345520675182D-05  .515365470123D+04
     .323984000000D+06  .167638063431D-07 -.209211350707D+01 -.124797224998D-06
     .997406998805D+00  .334468750000D+03 -.279683854097D+01 -.780961101593D-08
     .453947480163D-09  .100000000000D+01  .177300000000D+04  .000000000000D+00
     .240000000000D+01  .000000000000D+00 -.465661287308D-08  .190000000000D+02
     .316806000000D+06  .400000000000D+01
28 14  1  1 17 59 44.0  .321242958307D-03  .295585778076D-11  .000000000000D+00
     .290000000000D+02 -.965000000000D+02  .403373945001D-08  .200037074711D+01
    -.533461570740D-05  .192619184963D-01  .616535544395D-06  .515366120148D+04
     .323984000000D+06  .201165676117D-06 -.110210011526D+01 -.370666384697D-06
     .985242924214D+00  .379625000000D+03 -.174073294170D+01 -.803854912355D-08
    -.229295265354D-09  .100000000000D+01  .177300000000D+04  .000000000000D+00
     .240000000000D+01  .000000000000D+00 -.107102096081D-07  .290000000000D+02
     .316806000000D+06  .400000000000D+01
 1 14  1  1 18  0  0.0  .975774601102D-04  .261479726760D-11  .000000000000D+00
     .480000000000D+02  .281250000000D+02  .473448292450D-08 -.109085717581D+01
     .144168734550D-05  .261261372361D-02  .923685729504D-05  .515368245506D+04
     .324000000000D+06  .745058059692D-08  .934555369948D+00 -.279396772385D-07
     .960439614851D+00  .200937500000D+03  .421190088624D+00 -.804033491222D-08
     .770746390395D-09  .100000000000D+01  .177300000000D+04  .000000000000D+00
     .240000000000D+01  .000000000000D+00  .791624188423D-08  .480000000000D+02
     .316806000000D+06  .400000000000D+01
 2 14  1  1 18  0  0.0  .470279715955D-03  .216004991671D-11  .000000000000D+00
     .620000000000D+02  .323437500000D+02  .541129683080D-08 -.311852859729D+00
     .185333192348D-05  .129292929778D-01  .901706516743D-05  .515377996063D+04
     .324000000000D+06  .633299350739D-07  .908123671842D+00  .214204192162D-06
     .938985695929D+00  .196406250000D+03 -.252105916373D+01 -.851571185644D-08
     .785747015231D-09  .100000000000D+01  .177300000000D+04  .000000000000D+00
     .240000000000D+01  .000000000000D+00 -.204890966415D-07  .620000000000D+02
     .316806000000D+06  .400000000000D+01
 3 14  1  1 18  0  0.0  .306796748191D-03  .488853402203D-11  .000000000000D+00
     .600000000000D+02 -.142218750000D+03  .484377319117D-08 -.128879211902D+00
    -.749155879021D-05  .166967003606D-01  .965222716331D-05  .515376336288D+04
     .324000000000D+06 -.236555933952D-06 -.264091504425D+00  .149011611938D-06
     .937184459026D+00  .185718750000D+03  .135782801901D+01 -.849463955012D-08
    -.289297764699D-10  .100000000000D+01  .177300000000D+04  .000000000000D+00
     .240000000000D+01  .000000000000D+00 -.465661287308D-08  .600000000000D+02
     .316806000000D+06  .400000000000D+01
